{"type": "FeatureCollection", "features": [ {"type": "Feature", "properties": {"norad_id": 65077, "name": "CREW DRAGON 11", "group": "stations", "lat": 23.998144132873893, "lon": -41.675780764251826, "alt_km": 414.93765056326447, "timestamp": "2025-12-09T09:46:46.439045+00:00", "meta": {"OBJECT_NAME": "CREW DRAGON 11", "OBJECT_ID": "2025-166A", "EPOCH": "2025-12-08T20:45:25.501536", "MEAN_MOTION": 15.49428834, "ECCENTRICITY": 0.00033811, "INCLINATION": 51.6308, "RA_OF_ASC_NODE": 161.6653, "ARG_OF_PERICENTER": 221.9847, "MEAN_ANOMALY": 138.0883, "EPHEMERIS_TYPE": 0, "CLASSIFICATION_TYPE": "U", "NORAD_CAT_ID": 65077, "ELEMENT_SET_NO": 999, "REV_AT_EPOCH": 214, "BSTAR": 0.00022803662, "MEAN_MOTION_DOT": 0.00012323, "MEAN_MOTION_DDOT": 0}, "tle": {"line1": "1 65077U 25166A   25342.86487849  .00012323  00000+0  22804-3 0  9994", "line2": "2 65077  51.6308 161.6653 0003381 221.9847 138.0883 15.49428834  2142"}}, "geometry": {"type": "Point", "coordinates": [-41.675780764251826, 23.998144132873893]}}, {"type": "Feature", "properties": {"norad_id": 65304, "name": "DRAGON CRS-33", "group": "stations", "lat": 23.998143563643488, "lon": -41.67578018745044, "alt_km": 414.9376506249537, "timestamp": "2025-12-09T09:46:46.439057+00:00", "meta": {"OBJECT_NAME": "DRAGON CRS-33", "OBJECT_ID": "2025-186A", "EPOCH": "2025-12-08T20:45:25.501536", "MEAN_MOTION": 15.49428834, "ECCENTRICITY": 0.00033811, "INCLINATION": 51.6308, "RA_OF_ASC_NODE": 161.6653, "ARG_OF_PERICENTER": 221.9847, "MEAN_ANOMALY": 138.0883, "EPHEMERIS_TYPE": 0, "CLASSIFICATION_TYPE": "U", "NORAD_CAT_ID": 65304, "ELEMENT_SET_NO": 999, "REV_AT_EPOCH": 11, "BSTAR": 0.00022803662, "MEAN_MOTION_DOT": 0.00012323, "MEAN_MOTION_DDOT": 0}, "tle": {"line1": "1 65304U 25186A   25342.86487849  .00012323  00000+0  22804-3 0  9999", "line2": "2 65304  51.6308 161.6653 0003381 221.9847 138.0883 15.49428834   110"}}, "geometry": {"type": "Point", "coordinates": [-41.67578018745044, 23.998143563643488]}}, {"type": "Feature", "properties": {"norad_id": 65586, "name": "PROGRESS-MS 32", "group": "stations", "lat": 23.998143041849165, "lon": -41.67577965871609, "alt_km": 414.93765068149787, "timestamp": "2025-12-09T09:46:46.439068+00:00", "meta": {"OBJECT_NAME": "PROGRESS-MS 32", "OBJECT_ID": "2025-204A", "EPOCH": "2025-12-08T20:45:25.501536", "MEAN_MOTION": 15.49428834, "ECCENTRICITY": 0.00033811, "INCLINATION": 51.6308, "RA_OF_ASC_NODE": 161.6653, "ARG_OF_PERICENTER": 221.9847, "MEAN_ANOMALY": 138.0883, "EPHEMERIS_TYPE": 0, "CLASSIFICATION_TYPE": "U", "NORAD_CAT_ID": 65586, "ELEMENT_SET_NO": 999, "REV_AT_EPOCH": 27, "BSTAR": 0.00022803662, "MEAN_MOTION_DOT": 0.00012323, "MEAN_MOTION_DDOT": 0}, "tle": {"line1": "1 65586U 25204A   25342.86487849  .00012323  00000+0  22804-3 0  9992", "line2": "2 65586  51.6308 161.6653 0003381 221.9847 138.0883 15.49428834   279"}}, "geometry": {"type": "Point", "coordinates": [-41.67577965871609, 23.998143041849165]}}, {"type": "Feature", "properties": {"norad_id": 65616, "name": "CYGNUS NG-23", "group": "stations", "lat": 23.99814252005485, "lon": -41.67577912998173, "alt_km": 414.9376507380457, "timestamp": "2025-12-09T09:46:46.439079+00:00", "meta": {"OBJECT_NAME": "CYGNUS NG-23", "OBJECT_ID": "2025-208A", "EPOCH": "2025-12-08T20:45:25.501536", "MEAN_MOTION": 15.49428834, "ECCENTRICITY": 0.00033811, "INCLINATION": 51.6308, "RA_OF_ASC_NODE": 161.6653, "ARG_OF_PERICENTER": 221.9847, "MEAN_ANOMALY": 138.0883, "EPHEMERIS_TYPE": 0, "CLASSIFICATION_TYPE": "U", "NORAD_CAT_ID": 65616, "ELEMENT_SET_NO": 999, "REV_AT_EPOCH": 22, "BSTAR": 0.00022803662, "MEAN_MOTION_DOT": 0.00012323, "MEAN_MOTION_DDOT": 0}, "tle": {"line1": "1 65616U 25208A   25342.86487849  .00012323  00000+0  22804-3 0  9990", "line2": "2 65616  51.6308 161.6653 0003381 221.9847 138.0883 15.49428834   228"}}, "geometry": {"type": "Point", "coordinates": [-41.67577912998173, 23.99814252005485]}}, {"type": "Feature", "properties": {"norad_id": 65729, "name": "DRAGONFLY", "group": "stations", "lat": -34.54860124787681, "lon": 5.875858015708485, "alt_km": 357.671196228599, "timestamp": "2025-12-09T09:46:46.439089+00:00", "meta": {"OBJECT_NAME": "DRAGONFLY", "OBJECT_ID": "1998-067XH", "EPOCH": "2025-12-08T17:32:47.526432", "MEAN_MOTION": 15.70229086, "ECCENTRICITY": 0.00065245, "INCLINATION": 51.6249, "RA_OF_ASC_NODE": 156.265, "ARG_OF_PERICENTER": 251.495, "MEAN_ANOMALY": 108.5339, "EPHEMERIS_TYPE": 0, "CLASSIFICATION_TYPE": "U", "NORAD_CAT_ID": 65729, "ELEMENT_SET_NO": 999, "REV_AT_EPOCH": 1253, "BSTAR": 0.0013272482, "MEAN_MOTION_DOT": 0.00167478, "MEAN_MOTION_DDOT": 0}, "tle": {"line1": "1 65729U 98067XH  25342.73110563  .00167478  00000+0  13272-2 0  9990", "line2": "2 65729  51.6249 156.2650 0006524 251.4950 108.5339 15.70229086 12536"}}, "geometry": {"type": "Point", "coordinates": [5.875858015708485, -34.54860124787681]}}, {"type": "Feature", "properties": {"norad_id": 65731, "name": "1998-067XK", "group": "stations", "lat": -29.55439595091922, "lon": 127.42761536626386, "alt_km": 377.7624791105409, "timestamp": "2025-12-09T09:46:46.439102+00:00", "meta": {"OBJECT_NAME": "1998-067XK", "OBJECT_ID": "1998-067XK", "EPOCH": "2025-12-08T17:05:09.004992", "MEAN_MOTION": 15.64723492, "ECCENTRICITY": 0.0005404, "INCLINATION": 51.628, "RA_OF_ASC_NODE": 157.6517, "ARG_OF_PERICENTER": 220.4904, "MEAN_ANOMALY": 139.5689, "EPHEMERIS_TYPE": 0, "CLASSIFICATION_TYPE": "U", "NORAD_CAT_ID": 65731, "ELEMENT_SET_NO": 999, "REV_AT_EPOCH": 1251, "BSTAR": 0.0010051, "MEAN_MOTION_DOT": 0.00100336, "MEAN_MOTION_DDOT": 0}, "tle": {"line1": "1 65731U 98067XK  25342.71190978  .00100336  00000+0  10051-2 0  9991", "line2": "2 65731  51.6280 157.6517 0005404 220.4904 139.5689 15.64723492 12515"}}, "geometry": {"type": "Point", "coordinates": [127.42761536626386, -29.55439595091922]}}, {"type": "Feature", "properties": {"norad_id": 65732, "name": "RSP-03", "group": "stations", "lat": -50.62437378246895, "lon": 48.41158694400377, "alt_km": 367.16831821813685, "timestamp": "2025-12-09T09:46:46.439113+00:00", "meta": {"OBJECT_NAME": "RSP-03", "OBJECT_ID": "1998-067XL", "EPOCH": "2025-12-08T18:54:04.824576", "MEAN_MOTION": 15.67324417, "ECCENTRICITY": 0.00061707, "INCLINATION": 51.626, "RA_OF_ASC_NODE": 156.6485, "ARG_OF_PERICENTER": 224.9015, "MEAN_ANOMALY": 135.1483, "EPHEMERIS_TYPE": 0, "CLASSIFICATION_TYPE": "U", "NORAD_CAT_ID": 65732, "ELEMENT_SET_NO": 999, "REV_AT_EPOCH": 1254, "BSTAR": 0.0012544744, "MEAN_MOTION_DOT": 0.00139916, "MEAN_MOTION_DDOT": 0}, "tle": {"line1": "1 65732U 98067XL  25342.78755584  .00139916  00000+0  12545-2 0  9995", "line2": "2 65732  51.6260 156.6485 0006170 224.9015 135.1483 15.67324417 12544"}}, "geometry": {"type": "Point", "coordinates": [48.41158694400377, -50.62437378246895]}}, {"type": "Feature", "properties": {"norad_id": 65733, "name": "GHS-01", "group": "stations", "lat": 48.36842203340266, "lon": -90.74642688989806, "alt_km": 347.5268917904468, "timestamp": "2025-12-09T09:46:46.439124+00:00", "meta": {"OBJECT_NAME": "GHS-01", "OBJECT_ID": "1998-067XM", "EPOCH": "2025-12-09T00:10:31.774080", "MEAN_MOTION": 15.72845555, "ECCENTRICITY": 0.0006877, "INCLINATION": 51.6283, "RA_OF_ASC_NODE": 154.3653, "ARG_OF_PERICENTER": 253.5848, "MEAN_ANOMALY": 106.4394, "EPHEMERIS_TYPE": 0, "CLASSIFICATION_TYPE": "U", "NORAD_CAT_ID": 65733, "ELEMENT_SET_NO": 999, "REV_AT_EPOCH": 1259, "BSTAR": 0.0015001, "MEAN_MOTION_DOT": 0.0021266, "MEAN_MOTION_DDOT": 0}, "tle": {"line1": "1 65733U 98067XM  25343.00731220  .00212660  00000+0  15001-2 0  9991", "line2": "2 65733  51.6283 154.3653 0006877 253.5848 106.4394 15.72845555 12592"}}, "geometry": {"type": "Point", "coordinates": [-90.74642688989806, 48.36842203340266]}}, {"type": "Feature", "properties": {"norad_id": 65941, "name": "YOTSUBA-KULOVER", "group": "stations", "lat": 18.503117546062597, "lon": -38.66043250990445, "alt_km": 388.44839477462665, "timestamp": "2025-12-09T09:46:46.439134+00:00", "meta": {"OBJECT_NAME": "YOTSUBA-KULOVER", "OBJECT_ID": "1998-067XN", "EPOCH": "2025-12-08T16:11:16.679040", "MEAN_MOTION": 15.58725095, "ECCENTRICITY": 0.00016918, "INCLINATION": 51.6278, "RA_OF_ASC_NODE": 160.3988, "ARG_OF_PERICENTER": 209.1564, "MEAN_ANOMALY": 150.9334, "EPHEMERIS_TYPE": 0, "CLASSIFICATION_TYPE": "U", "NORAD_CAT_ID": 65941, "ELEMENT_SET_NO": 999, "REV_AT_EPOCH": 922, "BSTAR": 0.00092611573, "MEAN_MOTION_DOT": 0.00072881, "MEAN_MOTION_DDOT": 0}, "tle": {"line1": "1 65941U 98067XN  25342.67449860  .00072881  00000+0  92612-3 0  9993", "line2": "2 65941  51.6278 160.3988 0001691 209.1564 150.9334 15.58725095  9220"}}, "geometry": {"type": "Point", "coordinates": [-38.66043250990445, 18.503117546062597]}}, {"type": "Feature", "properties": {"norad_id": 65942, "name": "BOTAN", "group": "stations", "lat": 51.37960136451976, "lon": -121.21480161182421, "alt_km": 376.32458343466806, "timestamp": "2025-12-09T09:46:46.439144+00:00", "meta": {"OBJECT_NAME": "BOTAN", "OBJECT_ID": "1998-067XP", "EPOCH": "2025-12-08T16:31:24.604608", "MEAN_MOTION": 15.61763471, "ECCENTRICITY": 0.00036454, "INCLINATION": 51.6288, "RA_OF_ASC_NODE": 159.7433, "ARG_OF_PERICENTER": 204.4965, "MEAN_ANOMALY": 155.5857, "EPHEMERIS_TYPE": 0, "CLASSIFICATION_TYPE": "U", "NORAD_CAT_ID": 65942, "ELEMENT_SET_NO": 999, "REV_AT_EPOCH": 923, "BSTAR": 0.0012577931, "MEAN_MOTION_DOT": 0.00112002, "MEAN_MOTION_DDOT": 0}, "tle": {"line1": "1 65942U 98067XP  25342.68847922  .00112002  00000+0  12578-2 0  9998", "line2": "2 65942  51.6288 159.7433 0003645 204.4965 155.5857 15.61763471  9239"}}, "geometry": {"type": "Point", "coordinates": [-121.21480161182421, 51.37960136451976]}}]}